ONEWEB-0431             
1 51630U 22012J   24084.85687606  .00000220  00000+0  59350-3 0  9994
2 51630  87.8984 198.0726 0001442 127.8007 232.3251 13.10370823102694
ONEWEB-0434             
1 51631U 22012K   24084.83429505  .00000607  00000+0  17011-2 0  9991
2 51631  87.8995 198.0850 0001590  98.5891 261.5417 13.10375109102672
ONEWEB-0435             
1 51632U 22012L   24084.84241887  .00000716  00000+0  20161-2 0  9999
2 51632  87.8990 198.0750 0001340  98.0057 262.1223 13.10372644102661
ONEWEB-0436             
1 51633U 22012M   24084.72170590  .00000041  00000+0  71543-4 0  9992
2 51633  87.9247 167.9002 0001769  99.4183 260.7149 13.17648030106424
ONEWEB-0438             
1 51634U 22012N   24084.82616701  .00000347  00000+0  95827-3 0  9992
2 51634  87.8996 198.0781 0001943 101.1852 258.9494 13.10377051102694
ONEWEB-0439             
1 51635U 22012P   24084.82941839  .00000343  00000+0  94648-3 0  9992
2 51635  87.9002 198.0602 0001666 104.2615 255.8698 13.10376309102674
ONEWEB-0442             
1 51636U 22012Q   24084.94081822  .00000053  00000+0  10307-3 0  9991
2 51636  87.9252 167.8890 0002810 110.5281 249.6152 13.17648660106440
ONEWEB-0443             
1 51637U 22012R   24084.73277624  .00000088  00000+0  19280-3 0  9993
2 51637  87.9254 167.9360 0001792  88.5221 271.6116 13.17648242106465
